OBJECT_NAME,OBJECT_ID,EPOCH,MEAN_MOTION,ECCENTRICITY,INCLINATION,RA_OF_ASC_NODE,ARG_OF_PERICENTER,MEAN_ANOMALY,EPHEMERIS_TYPE,CLASSIFICATION_TYPE,NORAD_CAT_ID,ELEMENT_SET_NO,REV_AT_EPOCH,BSTAR,MEAN_MOTION_DOT,MEAN_MOTION_DDOT
IONOSFERA-M 4,2025-155B,2026-06-07T20:21:57.374208,14.21487173,.0000735,98.6019,120.9064,116.2449,243.8804,0,U,64877,999,4507,.59044E-4,.86E-6,0
MICROCARB,2025-156A,2026-06-07T16:52:34.445280,14.72316515,.0015158,97.9831,236.0097,305.3676,54.6114,0,U,64899,999,4657,.10785E-3,.633E-5,0
CO3D 3,2025-156B,2026-06-07T17:01:10.819200,15.20205411,.0001064,97.4326,237.5387,137.6197,222.5121,0,U,64900,999,4809,.25746E-3,.551E-4,0
CO3D 4,2025-156C,2026-06-07T17:01:23.818080,15.20192074,.0001668,97.4331,237.5396,23.1371,336.9939,0,U,64901,999,4809,.21768E-4,.404E-5,0
CO3D 2,2025-156D,2026-06-07T16:13:23.187648,15.20199829,.0001386,97.4324,237.4049,115.2930,244.8449,0,U,64902,999,4808,.23049E-3,.4925E-4,0
CO3D 1,2025-156E,2026-06-07T16:13:36.060384,15.20209687,.0001167,97.4323,237.4053,118.1085,242.0268,0,U,64903,999,4808,.23657E-3,.5058E-4,0
PRSC-S1,2025-164A,2026-06-07T20:23:17.365920,15.06373063,.0007606,41.1316,340.3990,289.1083,70.8907,0,U,65055,999,4702,.4087E-3,.5954E-4,0
SENTINEL-6B,2025-264A,2026-06-07T17:12:04.561344,12.80929754,.0008038,66.0384,154.8487,269.2821,90.7273,0,U,66514,999,2595,.12562E-3,-.32E-6,0
CAS500-3,2025-274F,2026-06-07T17:39:13.051008,14.88299713,.0006281,97.7446,87.0018,134.8412,225.3316,0,U,66655,999,2874,.17144E-3,.1532E-4,0
CSG-3,2026-001A,2026-06-07T11:27:35.299296,14.82162668,.0001329,97.8887,342.2203,95.6154,264.5211,0,U,67304,999,2302,.56904E-4,.401E-5,0
PRSC-E03,2026-092A,2026-06-07T20:14:17.539584,15.06624622,.0005142,37.9995,144.7784,300.2506,59.7747,0,U,68835,999,654,.18659E-3,.2711E-4,0
CAS500-2,2026-100AK,2026-06-07T16:13:07.906080,15.20477097,.0011365,97.4081,56.6949,63.8514,296.3889,0,U,69013,999,536,.33297E-3,.7217E-4,0
