IONOSFERA-M 4           
1 64877U 25155B   26158.84858072  .00000086  00000+0  59044-4 0  9993
2 64877  98.6019 120.9064 0000735 116.2449 243.8804 14.21487173 45074
MICROCARB               
1 64899U 25156A   26158.70317645  .00000633  00000+0  10785-3 0  9995
2 64899  97.9831 236.0097 0015158 305.3676  54.6114 14.72316515 46570
CO3D 3                  
1 64900U 25156B   26158.70915300  .00005510  00000+0  25746-3 0  9992
2 64900  97.4326 237.5387 0001064 137.6197 222.5121 15.20205411 48099
CO3D 4                  
1 64901U 25156C   26158.70930345  .00000404  00000+0  21768-4 0  9997
2 64901  97.4331 237.5396 0001668  23.1371 336.9939 15.20192074 48096
CO3D 2                  
1 64902U 25156D   26158.67596282  .00004925  00000+0  23049-3 0  9997
2 64902  97.4324 237.4049 0001386 115.2930 244.8449 15.20199829 48081
CO3D 1                  
1 64903U 25156E   26158.67611181  .00005058  00000+0  23657-3 0  9997
2 64903  97.4323 237.4053 0001167 118.1085 242.0268 15.20209687 48089
PRSC-S1                 
1 65055U 25164A   26158.84950655  .00005954  00000+0  40870-3 0  9997
2 65055  41.1316 340.3990 0007606 289.1083  70.8907 15.06373063 47025
SENTINEL-6B             
1 66514U 25264A   26158.71671946 -.00000032  00000+0  12562-3 0  9998
2 66514  66.0384 154.8487 0008038 269.2821  90.7273 12.80929754 25953
CAS500-3                
1 66655U 25274F   26158.73556772  .00001532  00000+0  17144-3 0  9992
2 66655  97.7446  87.0018 0006281 134.8412 225.3316 14.88299713 28746
CSG-3                   
1 67304U 26001A   26158.47749189  .00000401  00000+0  56904-4 0  9992
2 67304  97.8887 342.2203 0001329  95.6154 264.5211 14.82162668 23022
PRSC-E03                
1 68835U 26092A   26158.84325856  .00002711  00000+0  18659-3 0  9994
2 68835  37.9995 144.7784 0005142 300.2506  59.7747 15.06624622  6545
CAS500-2                
1 69013U 26100AK  26158.67578595  .00007217  00000+0  33297-3 0  9995
2 69013  97.4081  56.6949 0011365  63.8514 296.3889 15.20477097  5363
